{"fetched_at":"2026-05-03T06:27:58Z","count":17151,"tles":[{"name":"STARLINK-37467","line1":"1 68855U 26094S   26122.41670139 -.01692853  88016-3 -31777-2 0  9996","line2":"2 68855  97.2813 136.0784 0001274  90.2318 148.4462 16.01031958  2005","category":"Starlink"}]}