{
  "norad_id": 68855,
  "name": "STARLINK-37467",
  "history": [
    {
      "epoch": "2026-05-02T10:00:03.000096Z",
      "apogee_km": 272.40692672819205,
      "perigee_km": 270.7125839949258,
      "latitude_deg": -58.16869418905172,
      "longitude_deg": -66.0786567592592,
      "height_km": 294.8561004272374,
      "semi_major_axis_km": 6649.696755361559,
      "eccentricity": 0.0001274,
      "inclination_deg": 97.2813,
      "raan_deg": 136.0784,
      "arg_perigee_deg": 90.2318,
      "mean_anomaly_deg": 148.4462,
      "mean_motion_rev_day": 16.01031958
    }
  ]
}